{"type":"FeatureCollection","features":[{"type":"Feature","properties":{"id":"zis-derived-01","officialObjectId":"2163005","officialSoilCode":"082.3.07.10","officialSoilName":"Дерново-подзолистые временно избыточно увлажненные песчаные почвы на водно-ледниковых связных песках, сменяемых с глубины 0,4-0,5 м рыхлыми песками","officialAreaSqm":"76909","lyada":{"category":"B","categoryName":"Песок временно избыточно увлажнённый","color":"#3d8293","center":[24.544121,53.383733],"photoTarget":"Шурф 30-40 см; фото ближайшей канавы/мочажины; общий план рельефа.","whatToLookFor":"Следы мелиоративных канав (открытых или заиленных), низинки с застоем воды весной, кочки, осока-ситник. Пахотный горизонт часто сероватый.","expectedSurface":"Весной стоит вода, летом подсыхает — ищите следы.","routeOrder":14}},"geometry":{"type":"Polygon","coordinates":[[[24.5464041,53.38223306],[24.54617404,53.38226807],[24.54612403,53.38228307],[24.54236309,53.38412353],[24.54202301,53.38430858],[24.542003,53.38432858],[24.5415829,53.38534384],[24.54152288,53.3855989],[24.54137284,53.38650913],[24.54674419,53.38283321],[24.54673418,53.38273318],[24.5464041,53.38223306]]]}},{"type":"Feature","properties":{"id":"zis-derived-02","officialObjectId":"2163129","officialSoilCode":"082.3.07.10","officialSoilName":"Дерново-подзолистые временно избыточно увлажненные песчаные почвы на водно-ледниковых связных песках, сменяемых с глубины 0,4-0,5 м рыхлыми песками","officialAreaSqm":"52701","lyada":{"category":"B","categoryName":"Песок временно избыточно увлажнённый","color":"#3d8293","center":[24.554221,53.38016],"photoTarget":"Шурф 30-40 см; фото ближайшей канавы/мочажины; общий план рельефа.","whatToLookFor":"Следы мелиоративных канав (открытых или заиленных), низинки с застоем воды весной, кочки, осока-ситник. Пахотный горизонт часто сероватый.","expectedSurface":"Весной стоит вода, летом подсыхает — ищите следы.","routeOrder":6}},"geometry":{"type":"Polygon","coordinates":[[[24.55422606,53.38148787],[24.55418605,53.38139785],[24.55417604,53.38132783],[24.55415604,53.38131783],[24.55412603,53.38117279],[24.55406602,53.38104776],[24.55406602,53.38099775],[24.554006,53.38087272],[24.55397599,53.38072768],[24.55394599,53.38070768],[24.55390598,53.38054764],[24.55388597,53.38053763],[24.55385596,53.3804126],[24.55379595,53.38028257],[24.55379595,53.38023256],[24.55377594,53.38020755],[24.55375594,53.38012753],[24.55370593,53.38006252],[24.55370593,53.38003751],[24.55367592,53.38002751],[24.55363591,53.37994749],[24.5536159,53.37993748],[24.55355589,53.37984246],[24.55353588,53.37983246],[24.55352588,53.37979745],[24.55316579,53.37943236],[24.5532158,53.37938735],[24.55324581,53.37938235],[24.55327582,53.37935734],[24.55336584,53.37931733],[24.55340585,53.37928232],[24.55344586,53.37927232],[24.55346587,53.37925231],[24.5535859,53.3791973],[24.5536059,53.37917729],[24.55364591,53.37916729],[24.55366592,53.37914729],[24.55369592,53.37914229],[24.55379595,53.37909727],[24.55387597,53.37904226],[24.55412603,53.37891223],[24.55414604,53.37889222],[24.55447612,53.37872218],[24.55476619,53.37894224],[24.55494624,53.37905726],[24.55496624,53.37908227],[24.55499625,53.37909227],[24.55503626,53.37912228],[24.55503626,53.37913728],[24.55508627,53.37916229],[24.55508627,53.37931233],[24.55493623,53.37942736],[24.55488622,53.37945236],[24.55487622,53.37947237],[24.5548162,53.37950738],[24.5548162,53.37951738],[24.55459615,53.3796174],[24.55461615,53.37972743],[24.55429607,53.37982246],[24.55429607,53.37987247],[24.55433608,53.37995749],[24.55436609,53.38011753],[24.5543861,53.38012753],[24.55442611,53.38031258],[24.55443611,53.38034259],[24.55445611,53.38035259],[24.55445611,53.38043261],[24.55450613,53.38071268],[24.55452613,53.38075769],[24.55460615,53.38082771],[24.55463616,53.38087272],[24.55466617,53.38088772],[24.55466617,53.38090273],[24.55473618,53.38097774],[24.55475619,53.38106277],[24.5548062,53.38115779],[24.5548162,53.38122781],[24.55487622,53.38136284],[24.55482621,53.38137784],[24.55468617,53.38137784],[24.55465616,53.38138785],[24.55457614,53.38138785],[24.55449612,53.38141785],[24.55448612,53.38143786],[24.55442611,53.38146787],[24.5543861,53.38146787],[24.55431608,53.38148787],[24.55422606,53.38148787]]]}},{"type":"Feature","properties":{"id":"zis-derived-03","officialObjectId":"2162143","officialSoilCode":"037.3.07.10","officialSoilName":"Дерново-подзолистые песчаные почвы на водно-ледниковых связных песках, сменяемых с глубины 0,4-0,5 м рыхлыми песками","officialAreaSqm":"45728","lyada":{"category":"A","categoryName":"Сухой песок (дерново-подзолистый песчаный)","color":"#d4a64a","center":[24.55041,53.382314],"photoTarget":"Шурф или прикопка 30-40 см; крупный план поверхности; общий план края поля.","whatToLookFor":"Поверхностный слой, цвет песка в разрезе, корка, биотурбация (кротовины, ходы). Под пахотным горизонтом (≈20-25 см) — жёлто-бурый рыхлый песок.","expectedSurface":"Сухой верхний горизонт, нет следов застоя воды.","routeOrder":12}},"geometry":{"type":"Polygon","coordinates":[[[24.55147537,53.38288322],[24.55139535,53.38286322],[24.55133533,53.38286822],[24.55126532,53.38284821],[24.5512053,53.38285321],[24.55112528,53.38283321],[24.55106527,53.38283821],[24.55099525,53.3828182],[24.55093523,53.38282321],[24.55085521,53.3828032],[24.5508052,53.3828082],[24.55072518,53.3827882],[24.55067517,53.3827932],[24.55054514,53.38276819],[24.55049512,53.38277319],[24.55045511,53.38275819],[24.55035509,53.38275819],[24.55032508,53.38274319],[24.55022506,53.38274319],[24.55014504,53.38272318],[24.55008502,53.38272818],[24.55005501,53.38271318],[24.54992498,53.38269317],[24.54955489,53.38260815],[24.54949487,53.38260315],[24.54931483,53.38255814],[24.54927482,53.38256314],[24.54924481,53.38254814],[24.54917479,53.38254314],[24.54911478,53.38252813],[24.54907477,53.38253313],[24.54904476,53.38251813],[24.54895474,53.38251313],[24.54888472,53.38249812],[24.54904476,53.3824081],[24.54908477,53.38237309],[24.5491948,53.38231808],[24.5492148,53.38229807],[24.54924481,53.38229307],[24.54932483,53.38223806],[24.54938485,53.38221305],[24.54942486,53.38217804],[24.54953488,53.38212303],[24.54955489,53.38210303],[24.5495949,53.38209302],[24.54968492,53.38203301],[24.55013503,53.38179795],[24.55016504,53.38177294],[24.55033508,53.38168792],[24.55035509,53.38166792],[24.5503951,53.38165791],[24.55043511,53.38162291],[24.55046512,53.3816179],[24.55049512,53.3815929],[24.55061515,53.38153788],[24.55063516,53.38151788],[24.55067517,53.38150788],[24.55074519,53.38145786],[24.55088522,53.38138285],[24.55087522,53.38151788],[24.55085521,53.38152788],[24.55085521,53.3816179],[24.55088522,53.38163791],[24.55091523,53.38174794],[24.55104526,53.38185296],[24.55109527,53.38187297],[24.55122531,53.38189797],[24.55123531,53.38190798],[24.55124531,53.381988],[24.55129532,53.38209802],[24.55130533,53.38217304],[24.55136534,53.38233308],[24.55139535,53.38234309],[24.55139535,53.38235309],[24.55151538,53.38243311],[24.55166542,53.38268817],[24.55166542,53.38283821],[24.55163541,53.38285321],[24.5516154,53.38284821],[24.55147537,53.38288322]]]}},{"type":"Feature","properties":{"id":"zis-derived-04","officialObjectId":"2162142","officialSoilCode":"037.3.07.10","officialSoilName":"Дерново-подзолистые песчаные почвы на водно-ледниковых связных песках, сменяемых с глубины 0,4-0,5 м рыхлыми песками","officialAreaSqm":"39675","lyada":{"category":"A","categoryName":"Сухой песок (дерново-подзолистый песчаный)","color":"#d4a64a","center":[24.550073,53.381371],"photoTarget":"Шурф или прикопка 30-40 см; крупный план поверхности; общий план края поля.","whatToLookFor":"Поверхностный слой, цвет песка в разрезе, корка, биотурбация (кротовины, ходы). Под пахотным горизонтом (≈20-25 см) — жёлто-бурый рыхлый песок.","expectedSurface":"Сухой верхний горизонт, нет следов застоя воды.","routeOrder":10}},"geometry":{"type":"Polygon","coordinates":[[[24.54805451,53.38228307],[24.54814454,53.38222306],[24.54823456,53.38218305],[24.54827457,53.38214804],[24.54833458,53.38212303],[24.54835459,53.38210303],[24.5483946,53.38209302],[24.54851463,53.382013],[24.5487847,53.38186797],[24.5487947,53.38183796],[24.54877469,53.38182796],[24.54886472,53.38177294],[24.54914479,53.38162791],[24.5492148,53.38157789],[24.54952488,53.38141785],[24.54954489,53.38139785],[24.54968492,53.38132783],[24.54968492,53.38131783],[24.54986497,53.38122781],[24.55010503,53.38108777],[24.55019505,53.38104776],[24.55035509,53.38094774],[24.5503951,53.38093773],[24.55043511,53.38090273],[24.55066517,53.3807877],[24.55070518,53.38075269],[24.55082521,53.38069767],[24.55084521,53.38067767],[24.55088522,53.38066767],[24.55097524,53.38060265],[24.55101525,53.38059265],[24.55108527,53.38054264],[24.55127532,53.38044761],[24.55135534,53.3803926],[24.55144536,53.38034759],[24.55142536,53.38054264],[24.55139535,53.38056264],[24.55139535,53.38060265],[24.55136534,53.38063766],[24.55135534,53.38068767],[24.55129532,53.38073268],[24.55126532,53.38074269],[24.55123531,53.38077769],[24.55116529,53.3808177],[24.55115529,53.38083771],[24.55110528,53.38086272],[24.55109527,53.38088272],[24.55105526,53.38090773],[24.55103526,53.38094774],[24.55099525,53.38097774],[24.55097524,53.38101775],[24.55094524,53.38103776],[24.55094524,53.38108777],[24.55092523,53.38109777],[24.55091523,53.38117279],[24.55088522,53.38126782],[24.55062516,53.38140285],[24.55055514,53.38145786],[24.55044511,53.38150788],[24.55042511,53.38152788],[24.5503851,53.38153788],[24.55036509,53.38155789],[24.55024506,53.3816129],[24.55022506,53.38163291],[24.55018505,53.38164291],[24.55016504,53.38166292],[24.54962491,53.38193798],[24.5496049,53.38195799],[24.54947487,53.38202801],[24.54947487,53.38203801],[24.54930483,53.38212303],[24.54926482,53.38215804],[24.54909477,53.38224306],[24.54892473,53.38235309],[24.54888472,53.38236309],[24.54873468,53.38245811],[24.54868467,53.38245311],[24.54830458,53.38234309],[24.54805451,53.38228307]]]}},{"type":"Feature","properties":{"id":"zis-derived-05","officialObjectId":"2162134","officialSoilCode":"037.3.07.10","officialSoilName":"Дерново-подзолистые песчаные почвы на водно-ледниковых связных песках, сменяемых с глубины 0,4-0,5 м рыхлыми песками","officialAreaSqm":"34034","lyada":{"category":"A","categoryName":"Сухой песок (дерново-подзолистый песчаный)","color":"#d4a64a","center":[24.553949,53.378341],"photoTarget":"Шурф или прикопка 30-40 см; крупный план поверхности; общий план края поля.","whatToLookFor":"Поверхностный слой, цвет песка в разрезе, корка, биотурбация (кротовины, ходы). Под пахотным горизонтом (≈20-25 см) — жёлто-бурый рыхлый песок.","expectedSurface":"Сухой верхний горизонт, нет следов застоя воды.","routeOrder":1}},"geometry":{"type":"Polygon","coordinates":[[[24.5531958,53.37917229],[24.55313578,53.37911728],[24.55309577,53.37905726],[24.55304576,53.37902226],[24.55304576,53.37900225],[24.55298575,53.37895224],[24.55298575,53.37893723],[24.55293573,53.37890223],[24.55289572,53.37883721],[24.55286572,53.37882721],[24.55283571,53.3787922],[24.55270568,53.37869717],[24.55296574,53.37859715],[24.55309577,53.37849212],[24.55310578,53.37846712],[24.5531958,53.3783921],[24.5531958,53.37837709],[24.55346587,53.37820705],[24.55349587,53.37820705],[24.55354589,53.37818705],[24.55357589,53.37819205],[24.55362591,53.37818205],[24.55388597,53.37806202],[24.55395599,53.37808202],[24.553986,53.37807702],[24.55408602,53.378007],[24.55424606,53.37791698],[24.55427607,53.37788697],[24.5543861,53.37783196],[24.5544161,53.37780195],[24.55442611,53.37775194],[24.55452613,53.37773193],[24.55454614,53.37771693],[24.55458615,53.37771693],[24.55468617,53.37768192],[24.55493623,53.37763191],[24.55496624,53.37764691],[24.55497624,53.37772693],[24.55499625,53.37773693],[24.55505626,53.37794699],[24.55505626,53.37807202],[24.55501625,53.37808202],[24.55499625,53.37812203],[24.55496624,53.37814204],[24.55496624,53.37816704],[24.55475619,53.37827707],[24.55467617,53.37833208],[24.55454614,53.3783971],[24.55454614,53.3784071],[24.55442611,53.37846212],[24.55419605,53.37860215],[24.55415604,53.37861215],[24.55406602,53.37867717],[24.55394599,53.37873218],[24.55391598,53.37876219],[24.55373593,53.37885221],[24.5531958,53.37917229]]]}},{"type":"Feature","properties":{"id":"zis-derived-06","officialObjectId":"2163004","officialSoilCode":"082.3.07.10","officialSoilName":"Дерново-подзолистые временно избыточно увлажненные песчаные почвы на водно-ледниковых связных песках, сменяемых с глубины 0,4-0,5 м рыхлыми песками","officialAreaSqm":"28916","lyada":{"category":"B","categoryName":"Песок временно избыточно увлажнённый","color":"#3d8293","center":[24.552653,53.384709],"photoTarget":"Шурф 30-40 см; фото ближайшей канавы/мочажины; общий план рельефа.","whatToLookFor":"Следы мелиоративных канав (открытых или заиленных), низинки с застоем воды весной, кочки, осока-ситник. Пахотный горизонт часто сероватый.","expectedSurface":"Весной стоит вода, летом подсыхает — ищите следы.","routeOrder":15}},"geometry":{"type":"Polygon","coordinates":[[[24.5535959,53.38577894],[24.55352588,53.38573893],[24.55351588,53.38571893],[24.55340585,53.38566392],[24.55337584,53.38562891],[24.55331583,53.3856039],[24.55325581,53.38555389],[24.5531958,53.38552888],[24.5531858,53.38550888],[24.55313578,53.38548387],[24.55310578,53.38544886],[24.55307577,53.38543886],[24.55306577,53.38541885],[24.55300575,53.38537884],[24.55292573,53.38529882],[24.55287572,53.38526882],[24.55276569,53.38516379],[24.55265566,53.38508377],[24.55262566,53.38504376],[24.55259565,53.38503376],[24.55248562,53.38490873],[24.5523956,53.38484371],[24.55235559,53.3847837],[24.55232558,53.38476869],[24.55229557,53.38471368],[24.55226557,53.38469867],[24.55225556,53.38466867],[24.55223556,53.38465866],[24.55223556,53.38463366],[24.55216554,53.38452863],[24.55208552,53.38447862],[24.55196549,53.38442361],[24.55194549,53.3844036],[24.55190548,53.3843936],[24.55181545,53.38430858],[24.55176544,53.38427857],[24.55166542,53.38415854],[24.55164541,53.38408352],[24.55169542,53.38395349],[24.55169542,53.38390348],[24.55177544,53.38384846],[24.55178545,53.38382846],[24.55181545,53.38381845],[24.55184546,53.38378345],[24.55189547,53.38375844],[24.55190548,53.38373843],[24.5519955,53.38366842],[24.55206552,53.38366342],[24.55211553,53.38364341],[24.55214554,53.38364841],[24.55219555,53.38363341],[24.55223556,53.38363341],[24.55227557,53.3836184],[24.55232558,53.3836184],[24.55236559,53.3836034],[24.55244561,53.38373843],[24.55247562,53.38383346],[24.55250563,53.38385346],[24.55250563,53.38389347],[24.55264566,53.38417354],[24.55265566,53.38431358],[24.55271568,53.38446862],[24.55271568,53.38452363],[24.55274569,53.38458865],[24.55274569,53.38464366],[24.55276569,53.38465366],[24.55277569,53.38473868],[24.5528157,53.3847987],[24.55288572,53.38485371],[24.55297574,53.38488372],[24.55301575,53.38492373],[24.55301575,53.38494374],[24.55304576,53.38495374],[24.55307577,53.38500375],[24.55310578,53.38501875],[24.55310578,53.38503376],[24.5531958,53.38511378],[24.5531958,53.38512878],[24.55326582,53.3851988],[24.55346587,53.38533883],[24.55346587,53.38537884],[24.55352588,53.38550888],[24.55352588,53.38556389],[24.55355589,53.38562391],[24.55355589,53.38566892],[24.55357589,53.38567892],[24.5535959,53.38577894]]]}},{"type":"Feature","properties":{"id":"zis-derived-07","officialObjectId":"2163126","officialSoilCode":"082.3.07.10","officialSoilName":"Дерново-подзолистые временно избыточно увлажненные песчаные почвы на водно-ледниковых связных песках, сменяемых с глубины 0,4-0,5 м рыхлыми песками","officialAreaSqm":"25654","lyada":{"category":"B","categoryName":"Песок временно избыточно увлажнённый","color":"#3d8293","center":[24.552044,53.380428],"photoTarget":"Шурф 30-40 см; фото ближайшей канавы/мочажины; общий план рельефа.","whatToLookFor":"Следы мелиоративных канав (открытых или заиленных), низинки с застоем воды весной, кочки, осока-ситник. Пахотный горизонт часто сероватый.","expectedSurface":"Весной стоит вода, летом подсыхает — ищите следы.","routeOrder":3}},"geometry":{"type":"Polygon","coordinates":[[[24.55096524,53.38122781],[24.55098525,53.38114279],[24.55100525,53.38113278],[24.55100525,53.38108277],[24.55103526,53.38102276],[24.55109527,53.38097274],[24.55116529,53.38088772],[24.5512153,53.38086272],[24.55122531,53.38084271],[24.55127532,53.3808177],[24.55130533,53.3807827],[24.55133533,53.38077269],[24.55136534,53.38073768],[24.55142536,53.38070268],[24.55142536,53.38067767],[24.55149537,53.38053763],[24.55151538,53.38030758],[24.55163541,53.38024756],[24.55178545,53.38015254],[24.55190548,53.38009752],[24.55197549,53.38004751],[24.5520155,53.38003751],[24.55205551,53.3800025],[24.55228557,53.37988747],[24.55232558,53.37985246],[24.5523856,53.37982746],[24.55253563,53.37973743],[24.55268567,53.37973243],[24.5527957,53.37982246],[24.5528157,53.37987247],[24.55285571,53.37990748],[24.55288572,53.37996249],[24.55291573,53.3799825],[24.55294574,53.38003751],[24.55297574,53.38005751],[24.55301575,53.38011753],[24.55304576,53.38013253],[24.55307577,53.38017754],[24.55307577,53.38026757],[24.55290573,53.38035259],[24.55282571,53.38037759],[24.55271568,53.38043261],[24.55247562,53.38050763],[24.55237559,53.38055264],[24.55232558,53.38054764],[24.55228557,53.38055764],[24.55218555,53.38060765],[24.55216554,53.38062766],[24.55213553,53.38063266],[24.55208552,53.38066267],[24.5520155,53.38067767],[24.55096524,53.38122781]]]}},{"type":"Feature","properties":{"id":"zis-derived-08","officialObjectId":"2163011","officialSoilCode":"082.3.07.10","officialSoilName":"Дерново-подзолистые временно избыточно увлажненные песчаные почвы на водно-ледниковых связных песках, сменяемых с глубины 0,4-0,5 м рыхлыми песками","officialAreaSqm":"41010","lyada":{"category":"B","categoryName":"Песок временно избыточно увлажнённый","color":"#3d8293","center":[24.554772,53.386772],"photoTarget":"Шурф 30-40 см; фото ближайшей канавы/мочажины; общий план рельефа.","whatToLookFor":"Следы мелиоративных канав (открытых или заиленных), низинки с застоем воды весной, кочки, осока-ситник. Пахотный горизонт часто сероватый.","expectedSurface":"Весной стоит вода, летом подсыхает — ищите следы.","routeOrder":17}},"geometry":{"type":"Polygon","coordinates":[[[24.55544636,53.38732433],[24.55548637,53.38728932],[24.55469617,53.38609402],[24.55364591,53.38546887],[24.55378595,53.38589397],[24.55477619,53.38738935],[24.55489622,53.38738935],[24.55544636,53.38732433]]]}},{"type":"Feature","properties":{"id":"zis-derived-09","officialObjectId":"2163130","officialSoilCode":"082.3.07.10","officialSoilName":"Дерново-подзолистые временно избыточно увлажненные песчаные почвы на водно-ледниковых связных песках, сменяемых с глубины 0,4-0,5 м рыхлыми песками","officialAreaSqm":"19818","lyada":{"category":"B","categoryName":"Песок временно избыточно увлажнённый","color":"#3d8293","center":[24.551887,53.38113],"photoTarget":"Шурф 30-40 см; фото ближайшей канавы/мочажины; общий план рельефа.","whatToLookFor":"Следы мелиоративных канав (открытых или заиленных), низинки с застоем воды весной, кочки, осока-ситник. Пахотный горизонт часто сероватый.","expectedSurface":"Весной стоит вода, летом подсыхает — ищите следы.","routeOrder":11}},"geometry":{"type":"Polygon","coordinates":[[[24.55112528,53.38183796],[24.55100525,53.38175294],[24.55100525,53.38173293],[24.55097524,53.38171293],[24.55097524,53.38168292],[24.55094524,53.38163791],[24.55094524,53.38136284],[24.55096524,53.38133783],[24.55099525,53.38133283],[24.55100525,53.38131783],[24.5511853,53.38122781],[24.55147537,53.38109777],[24.55197549,53.38083771],[24.55209552,53.3807927],[24.55213553,53.38076769],[24.55216554,53.38076269],[24.55224556,53.38071768],[24.55244561,53.38063266],[24.55247562,53.38062766],[24.55251563,53.38060265],[24.55254564,53.38059765],[24.55258565,53.38057264],[24.55268567,53.38054764],[24.55263566,53.38060765],[24.55260565,53.38062266],[24.55256564,53.38069767],[24.55253563,53.38071768],[24.55250563,53.3807977],[24.55249562,53.38088772],[24.55247562,53.38089772],[24.55247562,53.38095774],[24.55244561,53.38103276],[24.5523856,53.38109277],[24.55212553,53.38126282],[24.55209552,53.38129782],[24.5519955,53.38136284],[24.55196549,53.38140785],[24.55191548,53.38144786],[24.55180545,53.38148787],[24.55137534,53.38168792],[24.55123531,53.38186297],[24.55112528,53.38183796]]]}},{"type":"Feature","properties":{"id":"zis-derived-10","officialObjectId":"2162840","officialSoilCode":"082.3.07.10","officialSoilName":"Дерново-подзолистые временно избыточно увлажненные песчаные почвы на водно-ледниковых связных песках, сменяемых с глубины 0,4-0,5 м рыхлыми песками","officialAreaSqm":"19071","lyada":{"category":"B","categoryName":"Песок временно избыточно увлажнённый","color":"#3d8293","center":[24.552343,53.379214],"photoTarget":"Шурф 30-40 см; фото ближайшей канавы/мочажины; общий план рельефа.","whatToLookFor":"Следы мелиоративных канав (открытых или заиленных), низинки с застоем воды весной, кочки, осока-ситник. Пахотный горизонт часто сероватый.","expectedSurface":"Весной стоит вода, летом подсыхает — ищите следы.","routeOrder":2}},"geometry":{"type":"Polygon","coordinates":[[[24.55219555,53.37972243],[24.55208552,53.37964741],[24.5519955,53.3796024],[24.55196549,53.37957239],[24.55184546,53.37950738],[24.55184546,53.37949737],[24.55172543,53.37942736],[24.55168542,53.37939235],[24.55157539,53.37933733],[24.55154539,53.37930233],[24.55142536,53.37924731],[24.55142536,53.37923731],[24.55168542,53.37915729],[24.55173543,53.37912728],[24.55190548,53.37905726],[24.55222556,53.37898225],[24.55224556,53.37896724],[24.55234559,53.37893723],[24.55244561,53.37886722],[24.55245561,53.37884721],[24.55249562,53.37882721],[24.55256564,53.37875719],[24.55264566,53.37872218],[24.55283571,53.37886722],[24.55286572,53.37891723],[24.55291573,53.37895224],[24.55293573,53.37899225],[24.55298575,53.37902726],[24.55301575,53.37908227],[24.55304576,53.37909727],[24.55304576,53.37911228],[24.55313578,53.3792023],[24.55305576,53.37924231],[24.55298575,53.37929232],[24.5527857,53.37939235],[24.55256564,53.37952738],[24.55247562,53.37956739],[24.55244561,53.3795924],[24.55219555,53.37972243]]]}},{"type":"Feature","properties":{"id":"zis-derived-11","officialObjectId":"2163011","officialSoilCode":"082.3.07.10","officialSoilName":"Дерново-подзолистые временно избыточно увлажненные песчаные почвы на водно-ледниковых связных песках, сменяемых с глубины 0,4-0,5 м рыхлыми песками","officialAreaSqm":"41010","lyada":{"category":"B","categoryName":"Песок временно избыточно увлажнённый","color":"#3d8293","center":[24.555403,53.387989],"photoTarget":"Шурф 30-40 см; фото ближайшей канавы/мочажины; общий план рельефа.","whatToLookFor":"Следы мелиоративных канав (открытых или заиленных), низинки с застоем воды весной, кочки, осока-ситник. Пахотный горизонт часто сероватый.","expectedSurface":"Весной стоит вода, летом подсыхает — ищите следы.","routeOrder":19}},"geometry":{"type":"Polygon","coordinates":[[[24.55543636,53.38866467],[24.55541635,53.38861465],[24.55535634,53.38855964],[24.55532633,53.38848962],[24.55529632,53.38847462],[24.55529632,53.38844961],[24.55526632,53.38842961],[24.55526632,53.3884046],[24.55523631,53.3883896],[24.5552063,53.38833958],[24.5552063,53.38830958],[24.55514629,53.38818955],[24.55514629,53.38814954],[24.55508627,53.38803451],[24.55508627,53.3879995],[24.55514629,53.3879995],[24.55525631,53.38797949],[24.55530633,53.38797949],[24.55536634,53.38795949],[24.55539635,53.38796449],[24.55544636,53.38794949],[24.55549637,53.38794949],[24.55555639,53.38792948],[24.5555964,53.38793448],[24.55564641,53.38791448],[24.55568642,53.38791948],[24.55573643,53.38789947],[24.55572643,53.38784946],[24.55569642,53.38783946],[24.55564641,53.38783946],[24.5555964,53.38785446],[24.55554639,53.38785446],[24.55550638,53.38786947],[24.55545636,53.38786947],[24.55538635,53.38788947],[24.55532633,53.38788447],[24.55525631,53.38789947],[24.55517629,53.38789947],[24.55510628,53.38791948],[24.55505626,53.38791448],[24.55502626,53.38787447],[24.55499625,53.38774444],[24.55496624,53.38771443],[24.55493623,53.3875894],[24.55486622,53.38742436],[24.55490623,53.38741935],[24.55491623,53.38740935],[24.55497624,53.38741435],[24.55504626,53.38739935],[24.55516629,53.38739435],[24.5551963,53.38737934],[24.55529632,53.38737934],[24.55532633,53.38736434],[24.55543636,53.38736434],[24.55551638,53.38734934],[24.55552638,53.38732933],[24.55571643,53.38749937],[24.55595649,53.38763441],[24.5559865,53.38773943],[24.5560165,53.38776444],[24.55602651,53.38782446],[24.55593648,53.38790448],[24.55570643,53.38794949],[24.55555639,53.38802451],[24.55555639,53.38819455],[24.55562641,53.3883946],[24.55562641,53.38844461],[24.55565641,53.38850463],[24.55566642,53.38861965],[24.55562641,53.38863466],[24.5555864,53.38863466],[24.55554639,53.38864966],[24.55550638,53.38864966],[24.55546637,53.38866467],[24.55543636,53.38866467]]]}},{"type":"Feature","properties":{"id":"zis-derived-12","officialObjectId":"2163000","officialSoilCode":"082.3.07.10","officialSoilName":"Дерново-подзолистые временно избыточно увлажненные песчаные почвы на водно-ледниковых связных песках, сменяемых с глубины 0,4-0,5 м рыхлыми песками","officialAreaSqm":"12363","lyada":{"category":"B","categoryName":"Песок временно избыточно увлажнённый","color":"#3d8293","center":[24.547407,53.382844],"photoTarget":"Шурф 30-40 см; фото ближайшей канавы/мочажины; общий план рельефа.","whatToLookFor":"Следы мелиоративных канав (открытых или заиленных), низинки с застоем воды весной, кочки, осока-ситник. Пахотный горизонт часто сероватый.","expectedSurface":"Весной стоит вода, летом подсыхает — ищите следы.","routeOrder":13}},"geometry":{"type":"Polygon","coordinates":[[[24.54651413,53.38310328],[24.54662416,53.38305326],[24.54664416,53.38303326],[24.54670418,53.38300825],[24.54677419,53.38295824],[24.5468142,53.38294824],[24.54691423,53.38288322],[24.54704426,53.38288322],[24.54707427,53.38287322],[24.54706427,53.38284821],[24.54698425,53.38283821],[24.54704426,53.3828132],[24.54704426,53.3828032],[24.54716429,53.38273818],[24.54716429,53.38272818],[24.5471943,53.38273818],[24.54752438,53.38257814],[24.54763441,53.38250813],[24.54776444,53.38245311],[24.54780445,53.3824181],[24.54791448,53.38236309],[24.5479845,53.38231308],[24.54807452,53.38232808],[24.54808452,53.38233808],[24.54813453,53.38234309],[24.54816454,53.38235809],[24.54819455,53.38235809],[24.54820455,53.38236809],[24.54824456,53.38237309],[24.54831458,53.3823981],[24.54867467,53.38248812],[24.54867467,53.38249812],[24.54848462,53.38259815],[24.54824456,53.38275319],[24.5479845,53.38287822],[24.54794449,53.38288322],[24.54786447,53.38291323],[24.54779445,53.38291323],[24.54763441,53.38287822],[24.5475944,53.38288322],[24.54753438,53.38286322],[24.54749437,53.38286822],[24.54746437,53.38285821],[24.54735434,53.38285821],[24.54732433,53.38284821],[24.54717429,53.38284821],[24.54714429,53.38285821],[24.54714429,53.38287822],[24.54717429,53.38288822],[24.54729432,53.38288822],[24.54732433,53.38289822],[24.54748437,53.38289822],[24.54753438,53.38291323],[24.54757439,53.38290823],[24.54763441,53.38292823],[24.54769442,53.38292823],[24.54773443,53.38294324],[24.54776444,53.38294324],[24.54774444,53.38295324],[24.54770443,53.38295324],[24.54764441,53.38297324],[24.54762441,53.38296824],[24.54756439,53.38298825],[24.54753438,53.38298325],[24.54748437,53.38299825],[24.54744436,53.38299825],[24.54738435,53.38301825],[24.54734434,53.38301325],[24.54727432,53.38303326],[24.54722431,53.38302826],[24.54716429,53.38304826],[24.54711428,53.38304326],[24.54704426,53.38306327],[24.54699425,53.38305826],[24.54692423,53.38307827],[24.54687422,53.38307327],[24.5468042,53.38309327],[24.54675419,53.38308827],[24.54667417,53.38310828],[24.54667417,53.38312828],[24.54669417,53.38313328],[24.54663416,53.38313328],[24.54663416,53.38311328],[24.54660415,53.38310328],[24.54651413,53.38310328]]]}},{"type":"Feature","properties":{"id":"zis-derived-14","officialObjectId":"2161178","officialSoilCode":"192.3.07.10","officialSoilName":"Дерново-глееватые среднемощные песчаные почвы на водно-ледниковых связных песках, сменяемых с глубины 0,3-0,5 м рыхлыми песками","officialAreaSqm":"14197","lyada":{"category":"B","categoryName":"Дерново-глееватый среднемощный","color":"#76639a","center":[24.554127,53.386826],"photoTarget":"Шурф 30-50 см с глеевым горизонтом; фото водной поверхности если есть.","whatToLookFor":"Глеевый горизонт ближе к поверхности (среднемощный). Постоянная влажность в профиле. Возможны мочажины даже летом.","expectedSurface":"Зелёная/сизая трава, следы постоянного увлажнения.","routeOrder":16}},"geometry":{"type":"Polygon","coordinates":[[[24.55404601,53.38743936],[24.55402601,53.38743436],[24.554006,53.38740435],[24.554006,53.38736934],[24.55397599,53.38732933],[24.55397599,53.38730433],[24.55394599,53.38728432],[24.55394599,53.38725931],[24.55390598,53.3872193],[24.55387597,53.3872093],[24.55380595,53.38715429],[24.55379595,53.38706927],[24.55375594,53.38697424],[24.55376594,53.38694424],[24.55381595,53.38694424],[24.55388597,53.38692423],[24.55392598,53.38692923],[24.553996,53.38690923],[24.55405601,53.38691423],[24.55410603,53.38689422],[24.55410603,53.38685421],[24.55406602,53.38675919],[24.55406602,53.38670418],[24.554006,53.38653913],[24.55397599,53.3863941],[24.55395599,53.3863841],[24.55390598,53.38619905],[24.55388597,53.38618905],[24.55385596,53.38606402],[24.55381595,53.385984],[24.55385596,53.386004],[24.55385596,53.38602401],[24.55387597,53.38603401],[24.55388597,53.38606902],[24.55393598,53.38611903],[24.55396599,53.38618405],[24.553986,53.38619405],[24.554006,53.38623906],[24.55405601,53.38628907],[24.55409602,53.38636909],[24.55412603,53.3863841],[24.55416604,53.38646412],[24.55418605,53.38647412],[24.55423606,53.38656414],[24.55427607,53.38659915],[24.55427607,53.38662416],[24.55431608,53.38665916],[24.55436609,53.38674919],[24.5543961,53.38676419],[24.5543961,53.3867892],[24.55461615,53.38708427],[24.55463616,53.38713428],[24.55466617,53.38714929],[24.55466617,53.38716929],[24.55473618,53.38726432],[24.55476619,53.38735434],[24.55468617,53.38735934],[24.55465616,53.38737434],[24.55453613,53.38737434],[24.55450613,53.38738935],[24.5543961,53.38738935],[24.55436609,53.38739935],[24.55431608,53.38739935],[24.55404601,53.38743936]]]}},{"type":"Feature","properties":{"id":"zis-derived-15","officialObjectId":"2162842","officialSoilCode":"082.3.07.10","officialSoilName":"Дерново-подзолистые временно избыточно увлажненные песчаные почвы на водно-ледниковых связных песках, сменяемых с глубины 0,4-0,5 м рыхлыми песками","officialAreaSqm":"10484","lyada":{"category":"B","categoryName":"Песок временно избыточно увлажнённый","color":"#3d8293","center":[24.551534,53.379759],"photoTarget":"Шурф 30-40 см; фото ближайшей канавы/мочажины; общий план рельефа.","whatToLookFor":"Следы мелиоративных канав (открытых или заиленных), низинки с застоем воды весной, кочки, осока-ситник. Пахотный горизонт часто сероватый.","expectedSurface":"Весной стоит вода, летом подсыхает — ищите следы.","routeOrder":4}},"geometry":{"type":"Polygon","coordinates":[[[24.55150538,53.38012253],[24.55148537,53.38009252],[24.55147537,53.3800075],[24.55145536,53.3799975],[24.55145536,53.37997749],[24.55140535,53.37990248],[24.55136534,53.37986747],[24.55136534,53.37985246],[24.55127532,53.37976244],[24.55124531,53.37974744],[24.5512153,53.37970243],[24.5511853,53.37969242],[24.55115529,53.37964741],[24.55093523,53.37947237],[24.5512153,53.37932733],[24.55126532,53.37931233],[24.55136534,53.37931233],[24.55143536,53.37934234],[24.55151538,53.37940235],[24.55157539,53.37943236],[24.5515854,53.37945236],[24.55170543,53.37952238],[24.55172543,53.37954739],[24.55175544,53.37955739],[24.55185546,53.37963241],[24.55197549,53.37970243],[24.5519955,53.37972743],[24.55209552,53.37978245],[24.55196549,53.37986247],[24.55190548,53.37988747],[24.55178545,53.37996749],[24.55166542,53.38002251],[24.55162541,53.38005751],[24.5515954,53.38006752],[24.55157539,53.38008752],[24.55153538,53.38009752],[24.55150538,53.38012253]]]}},{"type":"Feature","properties":{"id":"zis-derived-16","officialObjectId":"2161179","officialSoilCode":"192.3.07.10","officialSoilName":"Дерново-глееватые среднемощные песчаные почвы на водно-ледниковых связных песках, сменяемых с глубины 0,3-0,5 м рыхлыми песками","officialAreaSqm":"8667","lyada":{"category":"B","categoryName":"Дерново-глееватый среднемощный","color":"#76639a","center":[24.554547,53.387775],"photoTarget":"Шурф 30-50 см с глеевым горизонтом; фото водной поверхности если есть.","whatToLookFor":"Глеевый горизонт ближе к поверхности (среднемощный). Постоянная влажность в профиле. Возможны мочажины даже летом.","expectedSurface":"Зелёная/сизая трава, следы постоянного увлажнения.","routeOrder":20}},"geometry":{"type":"Polygon","coordinates":[[[24.55442611,53.38803451],[24.55450613,53.38803451],[24.55505626,53.38797449],[24.55529632,53.38793448],[24.5547962,53.38742936],[24.55477619,53.38742436],[24.55449612,53.38745436],[24.55407602,53.38752938],[24.55412603,53.38764941],[24.55421605,53.38779945],[24.55436609,53.3880045],[24.55442611,53.38803451]]]}},{"type":"Feature","properties":{"id":"zis-derived-18","officialObjectId":"2161180","officialSoilCode":"192.3.07.10","officialSoilName":"Дерново-глееватые среднемощные песчаные почвы на водно-ледниковых связных песках, сменяемых с глубины 0,3-0,5 м рыхлыми песками","officialAreaSqm":"8546","lyada":{"category":"B","categoryName":"Дерново-глееватый среднемощный","color":"#76639a","center":[24.554858,53.388334],"photoTarget":"Шурф 30-50 см с глеевым горизонтом; фото водной поверхности если есть.","whatToLookFor":"Глеевый горизонт ближе к поверхности (среднемощный). Постоянная влажность в профиле. Возможны мочажины даже летом.","expectedSurface":"Зелёная/сизая трава, следы постоянного увлажнения.","routeOrder":21}},"geometry":{"type":"Polygon","coordinates":[[[24.55535634,53.38868467],[24.55527632,53.38870468],[24.55517629,53.38866967],[24.55489622,53.38860465],[24.55475619,53.38855964],[24.55472618,53.38855964],[24.55471618,53.38853463],[24.55469617,53.38852463],[24.55469617,53.38849462],[24.55466617,53.38845961],[24.55465616,53.3884146],[24.55460615,53.38835459],[24.55460615,53.38832958],[24.55455614,53.38827957],[24.55451613,53.38820455],[24.55448612,53.38818455],[24.55448612,53.38816454],[24.55445611,53.38813953],[24.55445611,53.38811453],[24.5544161,53.38807452],[24.55449612,53.38806952],[24.55452613,53.38805451],[24.55462616,53.38805451],[24.55465616,53.38803951],[24.55475619,53.38803951],[24.5547862,53.38802451],[24.55488622,53.38802451],[24.55491623,53.3880095],[24.55501625,53.3880095],[24.55502626,53.38806952],[24.55508627,53.38818955],[24.55508627,53.38822956],[24.55515629,53.3883896],[24.55517629,53.3883996],[24.55524631,53.38851463],[24.55529632,53.38856464],[24.55531633,53.38861465],[24.55534634,53.38863466],[24.55536634,53.38866967],[24.55535634,53.38868467]]]}},{"type":"Feature","properties":{"id":"zis-derived-19","officialObjectId":"2162138","officialSoilCode":"037.3.07.10","officialSoilName":"Дерново-подзолистые песчаные почвы на водно-ледниковых связных песках, сменяемых с глубины 0,4-0,5 м рыхлыми песками","officialAreaSqm":"5719","lyada":{"category":"A","categoryName":"Сухой песок (дерново-подзолистый песчаный)","color":"#d4a64a","center":[24.544238,53.38091],"photoTarget":"Шурф или прикопка 30-40 см; крупный план поверхности; общий план края поля.","whatToLookFor":"Поверхностный слой, цвет песка в разрезе, корка, биотурбация (кротовины, ходы). Под пахотным горизонтом (≈20-25 см) — жёлто-бурый рыхлый песок.","expectedSurface":"Сухой верхний горизонт, нет следов застоя воды.","routeOrder":8}},"geometry":{"type":"Polygon","coordinates":[[[24.54454364,53.38124281],[24.54446362,53.38122281],[24.54443361,53.38122281],[24.54424356,53.38112778],[24.54421355,53.38112278],[24.54393348,53.38098775],[24.54392348,53.38090773],[24.54389347,53.38087772],[24.54389347,53.38083271],[24.54386347,53.3807827],[24.54386347,53.38073268],[24.54392348,53.38073768],[24.5439935,53.38071768],[24.54404351,53.38072268],[24.54412353,53.38070268],[24.54417354,53.38070768],[24.54423356,53.38069267],[24.54430358,53.38069267],[24.54435359,53.38067767],[24.54437359,53.38077269],[24.5443936,53.3807827],[24.5444036,53.38084771],[24.54443361,53.38090273],[24.54443361,53.38095274],[24.54446362,53.38098275],[24.54446362,53.38102776],[24.54448362,53.38105276],[24.54449362,53.38112278],[24.54454364,53.38124281]]]}},{"type":"Feature","properties":{"id":"zis-derived-20","officialObjectId":"2163125","officialSoilCode":"082.3.07.10","officialSoilName":"Дерново-подзолистые временно избыточно увлажненные песчаные почвы на водно-ледниковых связных песках, сменяемых с глубины 0,4-0,5 м рыхлыми песками","officialAreaSqm":"6563","lyada":{"category":"B","categoryName":"Песок временно избыточно увлажнённый","color":"#3d8293","center":[24.553086,53.379831],"photoTarget":"Шурф 30-40 см; фото ближайшей канавы/мочажины; общий план рельефа.","whatToLookFor":"Следы мелиоративных канав (открытых или заиленных), низинки с застоем воды весной, кочки, осока-ситник. Пахотный горизонт часто сероватый.","expectedSurface":"Весной стоит вода, летом подсыхает — ищите следы.","routeOrder":5}},"geometry":{"type":"Polygon","coordinates":[[[24.5532058,53.38020755],[24.5531958,53.38013753],[24.55316579,53.38009752],[24.55313578,53.38008752],[24.55313578,53.38006752],[24.55310578,53.38004751],[24.55302576,53.37993248],[24.55299575,53.37991248],[24.55290573,53.37977744],[24.55286572,53.37975744],[24.55283571,53.37971743],[24.5528057,53.37970743],[24.55277569,53.37965741],[24.55274569,53.37964241],[24.55274569,53.37962241],[24.55289572,53.37954239],[24.55297574,53.37948737],[24.55301575,53.37952238],[24.55301575,53.37953738],[24.55304576,53.37955239],[24.55307577,53.3796074],[24.55312578,53.37964241],[24.55314579,53.37968242],[24.5531958,53.37971743],[24.5532158,53.37975744],[24.55325581,53.37978745],[24.55328582,53.37984746],[24.55331583,53.37986747],[24.55332583,53.37990248],[24.55334584,53.37991248],[24.55331583,53.38005751],[24.55328582,53.38008752],[24.55324581,53.38016754],[24.5532058,53.38020755]]]}},{"type":"Feature","properties":{"id":"zis-derived-21","officialObjectId":"2162755","officialSoilCode":"048.3.07.10","officialSoilName":"Дерново-подзолистые оглеенные внизу песчаные  почвы  на  водно-ледниковых  связных  песках, сменяемых с глубины  0,4-0,5 м рыхлыми песками","officialAreaSqm":"4683","lyada":{"category":"B","categoryName":"Песок с глубинным оглеением","color":"#5d8e9a","center":[24.542114,53.381249],"photoTarget":"Глубокий шурф 50-80 см с маркером глубины; переход к глею.","whatToLookFor":"Глеевый горизонт глубоко (0,4-0,5 м и ниже). Сверху может выглядеть как обычный песок — отличие именно в глубине. Копать шурф глубже.","expectedSurface":"Внешне сухой, но профиль глееватый.","routeOrder":7}},"geometry":{"type":"Polygon","coordinates":[[[24.54228307,53.38142286],[24.54224306,53.38142286],[24.54219305,53.38140785],[24.54217304,53.38137284],[24.54214304,53.38135284],[24.54209302,53.38125781],[24.54205301,53.38123281],[24.54152288,53.38110278],[24.54180295,53.38096274],[24.54186297,53.38096274],[24.54190298,53.38097774],[24.54193298,53.38097774],[24.54210303,53.38089772],[24.54209302,53.38107277],[24.54218305,53.38129282],[24.54218305,53.38134284],[24.54220305,53.38138785],[24.54223306,53.38139785],[24.5423931,53.38138785],[24.54234309,53.38140785],[24.54229307,53.38141285],[24.54228307,53.38142286]]]}},{"type":"Feature","properties":{"id":"zis-derived-22","officialObjectId":"2162368","officialSoilCode":"041.3.07.10","officialSoilName":"Дерново-подзолистые слабодефлированные песчаные почвы на водно-ледниковых связных песках, сменяемых с глубины 0,3-0,4 м рыхлыми песками","officialAreaSqm":"3511","lyada":{"category":"A","categoryName":"Слабодефлированный песок","color":"#c98b3d","center":[24.54604,53.380589],"photoTarget":"Крупный план оголённой корочки; общий план с периферией.","whatToLookFor":"Признаки дефляции: оголённые участки, поверхностная корочка, неровный микрорельеф («рябь»). Возможно — выход песка на поверхность без дернины.","expectedSurface":"Частично голый песок, ветровая рябь или корочки.","routeOrder":9}},"geometry":{"type":"Polygon","coordinates":[[[24.54612403,53.38100275],[24.54611403,53.38093273],[24.54608402,53.38087272],[24.54607402,53.3807877],[24.54605401,53.38077769],[24.54602401,53.38062266],[24.54596399,53.38047762],[24.54596399,53.38042261],[24.54590398,53.38027257],[24.54590398,53.38019255],[24.54602401,53.38025256],[24.54602401,53.38026257],[24.54618405,53.38036259],[24.54612403,53.38100275]]]}},{"type":"Feature","properties":{"id":"zis-derived-23","officialObjectId":"2162154","officialSoilCode":"037.3.07.10","officialSoilName":"Дерново-подзолистые песчаные почвы на водно-ледниковых связных песках, сменяемых с глубины 0,4-0,5 м рыхлыми песками","officialAreaSqm":"2561","lyada":{"category":"A","categoryName":"Сухой песок (дерново-подзолистый песчаный)","color":"#d4a64a","center":[24.554072,53.387821],"photoTarget":"Шурф или прикопка 30-40 см; крупный план поверхности; общий план края поля.","whatToLookFor":"Поверхностный слой, цвет песка в разрезе, корка, биотурбация (кротовины, ходы). Под пахотным горизонтом (≈20-25 см) — жёлто-бурый рыхлый песок.","expectedSurface":"Сухой верхний горизонт, нет следов застоя воды.","routeOrder":18}},"geometry":{"type":"Polygon","coordinates":[[[24.55406602,53.38804951],[24.55406602,53.3880095],[24.554006,53.38785946],[24.554006,53.38781445],[24.55397599,53.38776444],[24.55397599,53.38772943],[24.55394599,53.38770943],[24.55394599,53.38766942],[24.55391598,53.38763441],[24.55390598,53.38757939],[24.55388597,53.38756939],[24.55391598,53.38754939],[24.553996,53.38753438],[24.55406602,53.38764941],[24.55409602,53.38773943],[24.55411603,53.38774944],[24.55416604,53.38783946],[24.55418605,53.38784946],[24.55423606,53.38793948],[24.55426607,53.38795949],[24.55427607,53.3879945],[24.55429607,53.3880095],[24.55421605,53.3880195],[24.55418605,53.38803451],[24.55409602,53.38803451],[24.55406602,53.38804951]]]}}]}